NORAD_CAT_ID,OBJECT_NAME,OBJECT_TYPE,EPOCH,MEAN_MOTION,ECCENTRICITY,INCLINATION,RA_OF_ASC_NODE,ARG_OF_PERICENTER,MEAN_ANOMALY,BSTAR,MEAN_MOTION_DOT,MEAN_MOTION_DDOT,TLE_LINE0,TLE_LINE1,TLE_LINE2,SEMIMAJOR_AXIS,PERIOD,APOGEE,PERIGEE,DECAYED
51734.0,STARLINK-3450,PAYLOAD,2023-02-28 18:25:32,15.08834448,0.0001281,53.2132,239.3098,84.2257,275.8881,6.8224e-05,7.98e-06,0.0,0 STARLINK-3450,1 51734U 22016W   23059.76773342  .00000798  00000-0  68224-4 0  9999,2 51734  53.2132 239.3098 0001281  84.2257 275.8881 15.08834448 56759,6917.897,95.438,540.649,538.876,0.0
51734.0,STARLINK-3450,PAYLOAD,2023-03-01 11:54:46,15.08841953,0.0001289,53.2136,236.0384,82.6257,277.4881,0.00029034,4.336e-05,0.0,0 STARLINK-3450,1 51734U 22016W   23060.49637432  .00004336  00000-0  29034-3 0  9997,2 51734  53.2136 236.0384 0001289  82.6257 277.4881 15.08841953 56864,6917.874,95.437,540.631,538.848,0.0
51734.0,STARLINK-3450,PAYLOAD,2023-03-02 19:42:29,15.08846585,0.0001187,53.2132,230.0901,80.678,279.4346,0.00025932,3.842e-05,0.0,0 STARLINK-3450,1 51734U 22016W   23061.82117322  .00003842  00000-0  25932-3 0  9990,2 51734  53.2132 230.0901 0001187  80.6780 279.4346 15.08846585 57062,6917.86,95.437,540.546,538.904,0.0
51734.0,STARLINK-3450,PAYLOAD,2023-03-03 11:36:20,15.08847229,0.0001069,53.2133,227.1157,75.5777,284.5333,0.00019096,2.753e-05,0.0,0 STARLINK-3450,1 51734U 22016W   23062.48357172  .00002753  00000-0  19096-3 0  9996,2 51734  53.2133 227.1157 0001069  75.5777 284.5333 15.08847229 58274,6917.858,95.437,540.463,538.984,0.0
51734.0,STARLINK-3450,PAYLOAD,2023-03-03 21:08:38,15.08862509,0.000131,53.2121,225.333,94.5406,265.5736,0.00052115,8.021e-05,0.0,0 STARLINK-3450,1 51734U 22016W   23062.88100487  .00008021  00000-0  52115-3 0  9998,2 51734  53.2121 225.3330 0001310  94.5406 265.5736 15.08862509 58334,6917.812,95.436,540.583,538.77,0.0
51734.0,STARLINK-3450,PAYLOAD,2023-03-04 03:30:11,15.08844969,0.0001482,53.2126,224.1425,84.2396,275.8765,2.74e-05,1.48e-06,0.0,0 STARLINK-3450,1 51734U 22016W   23063.14596674  .00000148  00000-0  27400-4 0  9997,2 51734  53.2126 224.1425 0001482  84.2396 275.8765 15.08844969 58375,6917.865,95.437,540.755,538.705,0.0
51734.0,STARLINK-3450,PAYLOAD,2023-03-04 11:27:07,15.08838899,0.0001571,53.2129,222.6559,89.8638,270.2534,-5.3488e-05,-1.139e-05,0.0,0 STARLINK-3450,1 51734U 22016W   23063.47717090 -.00001139  00000-0 -53488-4 0  9998,2 51734  53.2129 222.6559 0001571  89.8638 270.2534 15.08838899 57319,6917.884,95.438,540.836,538.662,0.0
51734.0,STARLINK-3450,PAYLOAD,2023-03-04 19:24:03,15.08844493,0.0001657,53.2125,221.1694,86.2002,273.918,9.7628e-05,1.266e-05,0.0,0 STARLINK-3450,1 51734U 22016W   23063.80837037  .00001266  00000-0  97628-4 0  9992,2 51734  53.2125 221.1694 0001657  86.2002 273.9180 15.08844493 57369,6917.867,95.437,540.878,538.585,0.0
51734.0,STARLINK-3450,PAYLOAD,2023-03-05 09:42:31,15.08835569,0.0001569,53.2105,218.4922,93.7503,266.3669,4.389e-06,-2.18e-06,0.0,0 STARLINK-3450,1 51734U 22016W   23064.40453508 -.00000218  00000-0  43890-5 0  9996,2 51734  53.2105 218.4922 0001569  93.7503 266.3669 15.08835569 58566,6917.894,95.438,540.844,538.674,0.0
51734.0,STARLINK-3450,PAYLOAD,2023-03-05 17:39:27,15.08841195,0.0001435,53.2123,217.0062,94.4932,265.6224,0.00021961,3.209e-05,0.0,0 STARLINK-3450,1 51734U 22016W   23064.73573398  .00003209  00000-0  21961-3 0  9997,2 51734  53.2123 217.0062 0001435  94.4932 265.6224 15.08841195 57506,6917.877,95.437,540.734,538.749,0.0
51734.0,STARLINK-3450,PAYLOAD,2023-03-06 19:05:37,15.08852576,0.0001669,53.2131,212.2486,83.4552,276.663,0.00038539,5.853e-05,0.0,0 STARLINK-3450,1 51734U 22016W   23065.79557221  .00005853  00000-0  38539-3 0  9997,2 51734  53.2131 212.2486 0001669  83.4552 276.6630 15.08852576 58775,6917.842,95.437,540.862,538.552,0.0
51734.0,STARLINK-3450,PAYLOAD,2023-03-07 03:02:33,15.08840235,0.0001495,53.2133,210.7611,90.2354,269.881,0.0001732,2.47e-05,0.0,0 STARLINK-3450,1 51734U 22016W   23066.12677585  .00002470  00000-0  17320-3 0  9998,2 51734  53.2133 210.7611 0001495  90.2354 269.8810 15.08840235 58822,6917.88,95.438,540.779,538.71,0.0
51734.0,STARLINK-3450,PAYLOAD,2023-03-07 09:24:06,15.08842317,0.0001736,53.2111,209.5731,87.6283,272.4908,0.00020162,2.922e-05,0.0,0 STARLINK-3450,1 51734U 22016W   23066.39173660  .00002922  00000-0  20162-3 0  9992,2 51734  53.2111 209.5731 0001736  87.6283 272.4908 15.08842317 57758,6917.873,95.437,540.939,538.537,0.0
51734.0,STARLINK-3450,PAYLOAD,2023-03-08 15:36:25,15.08844376,0.0002086,53.212,203.9218,98.7917,261.3311,0.00018763,2.7e-05,0.0,0 STARLINK-3450,1 51734U 22016W   23067.65029880  .00002700  00000-0  18763-3 0  9994,2 51734  53.2120 203.9218 0002086  98.7917 261.3311 15.08844376 59059,6917.867,95.437,541.175,538.289,0.0
51734.0,STARLINK-3450,PAYLOAD,2023-03-08 18:47:12,15.08842766,0.0001416,53.2139,203.3284,96.5921,263.5233,0.00017012,2.421e-05,0.0,0 STARLINK-3450,1 51734U 22016W   23067.78277907  .00002421  00000-0  17012-3 0  9999,2 51734  53.2139 203.3284 0001416  96.5921 263.5233 15.08842766 57969,6917.872,95.437,540.717,538.757,0.0
51734.0,STARLINK-3450,PAYLOAD,2023-03-09 12:16:28,15.08821613,0.0001538,53.2154,200.0579,96.9092,263.2075,4.9495e-05,4.99e-06,0.0,0 STARLINK-3450,1 51734U 22016W   23068.51144141  .00000499  00000-0  49495-4 0  9998,2 51734  53.2154 200.0579 0001538  96.9092 263.2075 15.08821613 59180,6917.937,95.439,540.866,538.738,0.0
51734.0,STARLINK-3450,PAYLOAD,2023-03-10 08:56:28,15.08855125,0.0001123,53.2136,196.1908,91.6068,268.5053,0.00074159,0.00011539,0.0,0 STARLINK-3450,1 51734U 22016W   23069.37255061  .00011539  00000-0  74159-3 0  9998,2 51734  53.2136 196.1908 0001123  91.6068 268.5053 15.08855125 59310,6917.834,95.437,540.476,538.922,0.0
51734.0,STARLINK-3450,PAYLOAD,2023-03-10 18:28:45,15.08898962,0.0001322,53.2138,194.4054,88.3843,271.73,0.0013971,0.00022053,0.0,0 STARLINK-3450,1 51734U 22016W   23069.76997168  .00022053  00000-0  13971-2 0  9999,2 51734  53.2138 194.4054 0001322  88.3843 271.7300 15.08898962 59373,6917.7,95.434,540.48,538.651,0.0
51734.0,STARLINK-3450,PAYLOAD,2023-03-11 00:50:19,15.08857515,0.0002899,53.2163,193.2144,98.7198,261.4123,0.00021589,3.151e-05,0.0,0 STARLINK-3450,1 51734U 22016W   23070.03494270  .00003151  00000-0  21589-3 0  9990,2 51734  53.2163 193.2144 0002899  98.7198 261.4123 15.08857515 59419,6917.827,95.436,541.697,537.686,0.0
51734.0,STARLINK-3450,PAYLOAD,2023-03-11 08:47:14,15.08830762,0.0001321,53.2166,191.7317,101.2285,258.8856,-0.00064559,-0.00010545,0.0,0 STARLINK-3450,1 51734U 22016W   23070.36614499 -.00010545  00000-0 -64559-3 0  9994,2 51734  53.2166 191.7317 0001321 101.2285 258.8856 15.08830762 59466,6917.909,95.438,540.687,538.86,0.0
51734.0,STARLINK-3450,PAYLOAD,2023-03-11 18:19:32,15.0884473,0.0001297,53.2154,189.9446,101.133,258.9808,-0.00054009,-8.874e-05,0.0,0 STARLINK-3450,1 51734U 22016W   23070.76357519 -.00008874  00000-0 -54009-3 0  9996,2 51734  53.2154 189.9446 0001297 101.1330 258.9808 15.08844730 59522,6917.866,95.437,540.628,538.834,0.0
51734.0,STARLINK-3450,PAYLOAD,2023-03-12 08:38:01,15.08840295,0.0001373,53.2161,187.2683,105.6277,254.4867,0.00023734,3.491e-05,0.0,0 STARLINK-3450,1 51734U 22016W   23071.35973844  .00003491  00000-0  23734-3 0  9996,2 51734  53.2161 187.2683 0001373 105.6277 254.4867 15.08840295 58503,6917.879,95.438,540.694,538.795,0.0
51734.0,STARLINK-3450,PAYLOAD,2023-03-12 16:34:57,15.08819593,0.0001337,53.2152,185.7824,103.3042,256.8099,-3.2447e-05,-8.04e-06,0.0,0 STARLINK-3450,1 51734U 22016W   23071.69094670 -.00000804  00000-0 -32447-4 0  9993,2 51734  53.2152 185.7824 0001337 103.3042 256.8099 15.08819593 59666,6917.943,95.439,540.733,538.883,0.0
51734.0,STARLINK-3450,PAYLOAD,2023-03-13 06:53:26,15.08819953,0.0001453,53.2146,183.1067,95.9058,264.2099,0.00012389,1.683e-05,0.0,0 STARLINK-3450,1 51734U 22016W   23072.28711716  .00001683  00000-0  12389-3 0  9992,2 51734  53.2146 183.1067 0001453  95.9058 264.2099 15.08819953 58642,6917.942,95.439,540.812,538.801,0.0
51734.0,STARLINK-3450,PAYLOAD,2023-03-14 13:05:46,15.08862998,0.0001223,53.2124,177.4582,101.0301,259.0829,0.00094544,0.000148,0.0,0 STARLINK-3450,1 51734U 22016W   23073.54567151  .00014800  00000-0  94544-3 0  9992,2 51734  53.2124 177.4582 0001223 101.0301 259.0829 15.08862998 59945,6917.81,95.436,540.521,538.829,0.0
51734.0,STARLINK-3450,PAYLOAD,2023-03-14 16:16:31,15.08883465,0.0001402,53.2129,176.8612,99.9126,260.2024,0.0014753,0.00023297,0.0,0 STARLINK-3450,1 51734U 22016W   23073.67814669  .00023297  00000-0  14753-2 0  9998,2 51734  53.2129 176.8612 0001402  99.9126 260.2024 15.08883465 59961,6917.748,95.435,540.582,538.643,0.0
51734.0,STARLINK-3450,PAYLOAD,2023-03-15 00:13:27,15.08866685,0.0002296,53.2136,175.3763,92.089,268.0365,0.00058068,8.972e-05,0.0,0 STARLINK-3450,1 51734U 22016W   23074.00934746  .00008972  00000-0  58068-3 0  9996,2 51734  53.2136 175.3763 0002296  92.0890 268.0365 15.08866685 60011,6917.799,95.436,541.252,538.075,0.0
51734.0,STARLINK-3450,PAYLOAD,2023-03-15 12:56:31,15.08873815,0.0001643,53.2137,172.9969,103.9817,256.1358,0.00054616,8.423e-05,0.0,0 STARLINK-3450,1 51734U 22016W   23074.53925486  .00008423  00000-0  54616-3 0  9991,2 51734  53.2137 172.9969 0001643 103.9817 256.1358 15.08873815 58985,6917.777,95.435,540.779,538.505,0.0
51734.0,STARLINK-3450,PAYLOAD,2023-03-15 16:07:17,15.08890259,0.0001215,53.213,172.3967,124.2349,235.8759,0.0010934,0.0001718,0.0,0 STARLINK-3450,1 51734U 22016W   23074.67172682  .00017180  00000-0  10934-2 0  9992,2 51734  53.2130 172.3967 0001215 124.2349 235.8759 15.08890259 60119,6917.727,95.434,540.432,538.751,0.0
51734.0,STARLINK-3450,PAYLOAD,2023-03-16 06:25:46,15.0881529,0.0001253,53.2139,169.7235,106.5873,253.5257,-0.0010487,-0.00016928,0.0,0 STARLINK-3450,1 51734U 22016W   23075.26789905 -.00016928  00000-0 -10487-2 0  9994,2 51734  53.2139 169.7235 0001253 106.5873 253.5257 15.08815290 60205,6917.956,95.439,540.688,538.954,0.0
